CCSDS_OMM_VERS = 2.0
CREATION_DATE  = 
ORIGINATOR     = 

OBJECT_NAME    = UNKNOWN
OBJECT_ID      = 
CENTER_NAME    = EARTH
REF_FRAME      = TEME
TIME_SYSTEM    = UTC
MEAN_ELEMENT_THEORY = SGP/SGP4

EPOCH          = 2025-11-30T00:59:18.287232
MEAN_MOTION    = 14.52421879
ECCENTRICITY   = .0378362
INCLINATION    = 66.0741
RA_OF_ASC_NODE = 203.6035
ARG_OF_PERICENTER = 150.7317
MEAN_ANOMALY   = 211.5582

EPHEMERIS_TYPE = 0
CLASSIFICATION_TYPE = U
NORAD_CAT_ID   = 81947
ELEMENT_SET_NO = 999
REV_AT_EPOCH   = 62917
BSTAR          = .55396E-3
MEAN_MOTION_DOT = .5752E-4
MEAN_MOTION_DDOT = 0

CCSDS_OMM_VERS = 2.0
CREATION_DATE  = 
ORIGINATOR     = 

OBJECT_NAME    = UNKNOWN
OBJECT_ID      = 
CENTER_NAME    = EARTH
REF_FRAME      = TEME
TIME_SYSTEM    = UTC
MEAN_ELEMENT_THEORY = SGP/SGP4

EPOCH          = 2025-12-02T06:48:56.222784
MEAN_MOTION    = 13.95784689
ECCENTRICITY   = .0028898
INCLINATION    = 66.5849
RA_OF_ASC_NODE = 284.7478
ARG_OF_PERICENTER = 95.1966
MEAN_ANOMALY   = 265.2413

EPHEMERIS_TYPE = 0
CLASSIFICATION_TYPE = U
NORAD_CAT_ID   = 81964
ELEMENT_SET_NO = 999
REV_AT_EPOCH   = 61258
BSTAR          = .31599E-3
MEAN_MOTION_DOT = .354E-5
MEAN_MOTION_DDOT = 0

CCSDS_OMM_VERS = 2.0
CREATION_DATE  = 
ORIGINATOR     = 

OBJECT_NAME    = UNKNOWN
OBJECT_ID      = 
CENTER_NAME    = EARTH
REF_FRAME      = TEME
TIME_SYSTEM    = UTC
MEAN_ELEMENT_THEORY = SGP/SGP4

EPOCH          = 2025-12-01T11:44:43.015200
MEAN_MOTION    = 15.10609673
ECCENTRICITY   = .0003012
INCLINATION    = 86.6866
RA_OF_ASC_NODE = 158.3173
ARG_OF_PERICENTER = 195.2983
MEAN_ANOMALY   = 164.8165

EPHEMERIS_TYPE = 0
CLASSIFICATION_TYPE = U
NORAD_CAT_ID   = 81969
ELEMENT_SET_NO = 999
REV_AT_EPOCH   = 43847
BSTAR          = .77169E-3
MEAN_MOTION_DOT = .12783E-3
MEAN_MOTION_DDOT = 0

CCSDS_OMM_VERS = 2.0
CREATION_DATE  = 
ORIGINATOR     = 

OBJECT_NAME    = UNKNOWN
OBJECT_ID      = 
CENTER_NAME    = EARTH
REF_FRAME      = TEME
TIME_SYSTEM    = UTC
MEAN_ELEMENT_THEORY = SGP/SGP4

EPOCH          = 2025-12-01T21:13:59.503872
MEAN_MOTION    = 14.03610117
ECCENTRICITY   = .0520174
INCLINATION    = 65.7443
RA_OF_ASC_NODE = 152.4101
ARG_OF_PERICENTER = 302.3668
MEAN_ANOMALY   = 52.8063

EPHEMERIS_TYPE = 0
CLASSIFICATION_TYPE = U
NORAD_CAT_ID   = 81995
ELEMENT_SET_NO = 999
REV_AT_EPOCH   = 60270
BSTAR          = .99576E-3
MEAN_MOTION_DOT = .5241E-4
MEAN_MOTION_DDOT = 0

CCSDS_OMM_VERS = 2.0
CREATION_DATE  = 
ORIGINATOR     = 

OBJECT_NAME    = UNKNOWN
OBJECT_ID      = 
CENTER_NAME    = EARTH
REF_FRAME      = TEME
TIME_SYSTEM    = UTC
MEAN_ELEMENT_THEORY = SGP/SGP4

EPOCH          = 2025-12-03T08:38:40.197408
MEAN_MOTION    = 14.32482139
ECCENTRICITY   = .0232693
INCLINATION    = 97.9276
RA_OF_ASC_NODE = 126.8431
ARG_OF_PERICENTER = 111.6994
MEAN_ANOMALY   = 250.9141

EPHEMERIS_TYPE = 0
CLASSIFICATION_TYPE = U
NORAD_CAT_ID   = 82043
ELEMENT_SET_NO = 999
REV_AT_EPOCH   = 57250
BSTAR          = .11281E-2
MEAN_MOTION_DOT = .4087E-4
MEAN_MOTION_DDOT = 0

CCSDS_OMM_VERS = 2.0
CREATION_DATE  = 
ORIGINATOR     = 

OBJECT_NAME    = UNKNOWN
OBJECT_ID      = 
CENTER_NAME    = EARTH
REF_FRAME      = TEME
TIME_SYSTEM    = UTC
MEAN_ELEMENT_THEORY = SGP/SGP4

EPOCH          = 2025-12-03T23:36:23.734656
MEAN_MOTION    = 14.35725029
ECCENTRICITY   = .0091978
INCLINATION    = 98.7488
RA_OF_ASC_NODE = 63.3484
ARG_OF_PERICENTER = 284.9737
MEAN_ANOMALY   = 74.1280

EPHEMERIS_TYPE = 0
CLASSIFICATION_TYPE = U
NORAD_CAT_ID   = 82051
ELEMENT_SET_NO = 999
REV_AT_EPOCH   = 57115
BSTAR          = .39183E-2
MEAN_MOTION_DOT = .11852E-3
MEAN_MOTION_DDOT = 0

CCSDS_OMM_VERS = 2.0
CREATION_DATE  = 
ORIGINATOR     = 

OBJECT_NAME    = UNKNOWN
OBJECT_ID      = 
CENTER_NAME    = EARTH
REF_FRAME      = TEME
TIME_SYSTEM    = UTC
MEAN_ELEMENT_THEORY = SGP/SGP4

EPOCH          = 2025-12-02T04:21:01.823904
MEAN_MOTION    = 14.38746071
ECCENTRICITY   = .0206663
INCLINATION    = 97.7546
RA_OF_ASC_NODE = 53.3024
ARG_OF_PERICENTER = 320.1388
MEAN_ANOMALY   = 38.4776

EPHEMERIS_TYPE = 0
CLASSIFICATION_TYPE = U
NORAD_CAT_ID   = 82073
ELEMENT_SET_NO = 999
REV_AT_EPOCH   = 57360
BSTAR          = .72289E-3
MEAN_MOTION_DOT = .2802E-4
MEAN_MOTION_DDOT = 0

CCSDS_OMM_VERS = 2.0
CREATION_DATE  = 
ORIGINATOR     = 

OBJECT_NAME    = UNKNOWN
OBJECT_ID      = 
CENTER_NAME    = EARTH
REF_FRAME      = TEME
TIME_SYSTEM    = UTC
MEAN_ELEMENT_THEORY = SGP/SGP4

EPOCH          = 2025-11-29T15:14:25.759104
MEAN_MOTION    = 14.15333810
ECCENTRICITY   = .0083279
INCLINATION    = 99.0282
RA_OF_ASC_NODE = 41.3566
ARG_OF_PERICENTER = 80.5562
MEAN_ANOMALY   = 280.5013

EPHEMERIS_TYPE = 0
CLASSIFICATION_TYPE = U
NORAD_CAT_ID   = 82139
ELEMENT_SET_NO = 999
REV_AT_EPOCH   = 47826
BSTAR          = .11608E-2
MEAN_MOTION_DOT = .2293E-4
MEAN_MOTION_DDOT = 0

CCSDS_OMM_VERS = 2.0
CREATION_DATE  = 
ORIGINATOR     = 

OBJECT_NAME    = UNKNOWN
OBJECT_ID      = 
CENTER_NAME    = EARTH
REF_FRAME      = TEME
TIME_SYSTEM    = UTC
MEAN_ELEMENT_THEORY = SGP/SGP4

EPOCH          = 2025-12-03T06:19:53.863104
MEAN_MOTION    = 13.53450704
ECCENTRICITY   = .0054258
INCLINATION    = 100.4767
RA_OF_ASC_NODE = 261.2141
ARG_OF_PERICENTER = 264.2074
MEAN_ANOMALY   = 95.2872

EPHEMERIS_TYPE = 0
CLASSIFICATION_TYPE = U
NORAD_CAT_ID   = 82162
ELEMENT_SET_NO = 999
REV_AT_EPOCH   = 50302
BSTAR          = .75175E-2
MEAN_MOTION_DOT = .5051E-4
MEAN_MOTION_DDOT = 0

CCSDS_OMM_VERS = 2.0
CREATION_DATE  = 
ORIGINATOR     = 

OBJECT_NAME    = UNKNOWN
OBJECT_ID      = 
CENTER_NAME    = EARTH
REF_FRAME      = TEME
TIME_SYSTEM    = UTC
MEAN_ELEMENT_THEORY = SGP/SGP4

EPOCH          = 2025-11-13T04:11:58.290144
MEAN_MOTION    = 14.49940193
ECCENTRICITY   = .0326753
INCLINATION    = 65.6558
RA_OF_ASC_NODE = 11.9328
ARG_OF_PERICENTER = 232.3485
MEAN_ANOMALY   = 124.7559

EPHEMERIS_TYPE = 0
CLASSIFICATION_TYPE = U
NORAD_CAT_ID   = 82180
ELEMENT_SET_NO = 999
REV_AT_EPOCH   = 59746
BSTAR          = .55072E-2
MEAN_MOTION_DOT = .42825E-3
MEAN_MOTION_DDOT = 0

CCSDS_OMM_VERS = 2.0
CREATION_DATE  = 
ORIGINATOR     = 

OBJECT_NAME    = UNKNOWN
OBJECT_ID      = 
CENTER_NAME    = EARTH
REF_FRAME      = TEME
TIME_SYSTEM    = UTC
MEAN_ELEMENT_THEORY = SGP/SGP4

EPOCH          = 2025-11-28T00:11:41.509248
MEAN_MOTION    = 14.35193498
ECCENTRICITY   = .0017588
INCLINATION    = 74.0357
RA_OF_ASC_NODE = 75.3282
ARG_OF_PERICENTER = 270.7181
MEAN_ANOMALY   = 89.1957

EPHEMERIS_TYPE = 0
CLASSIFICATION_TYPE = U
NORAD_CAT_ID   = 82189
ELEMENT_SET_NO = 999
REV_AT_EPOCH   = 63030
BSTAR          = .15032E-3
MEAN_MOTION_DOT = .404E-5
MEAN_MOTION_DDOT = 0

CCSDS_OMM_VERS = 2.0
CREATION_DATE  = 
ORIGINATOR     = 

OBJECT_NAME    = UNKNOWN
OBJECT_ID      = 
CENTER_NAME    = EARTH
REF_FRAME      = TEME
TIME_SYSTEM    = UTC
MEAN_ELEMENT_THEORY = SGP/SGP4

EPOCH          = 2025-12-04T11:21:22.938624
MEAN_MOTION    = 13.85763806
ECCENTRICITY   = .0038789
INCLINATION    = 82.9674
RA_OF_ASC_NODE = 240.0958
ARG_OF_PERICENTER = 58.9140
MEAN_ANOMALY   = 116.0328

EPHEMERIS_TYPE = 0
CLASSIFICATION_TYPE = U
NORAD_CAT_ID   = 82199
ELEMENT_SET_NO = 999
REV_AT_EPOCH   = 60854
BSTAR          = .79134E-3
MEAN_MOTION_DOT = .927E-5
MEAN_MOTION_DDOT = 0

CCSDS_OMM_VERS = 2.0
CREATION_DATE  = 
ORIGINATOR     = 

OBJECT_NAME    = UNKNOWN
OBJECT_ID      = 
CENTER_NAME    = EARTH
REF_FRAME      = TEME
TIME_SYSTEM    = UTC
MEAN_ELEMENT_THEORY = SGP/SGP4

EPOCH          = 2025-11-29T11:08:23.093952
MEAN_MOTION    = 13.93173733
ECCENTRICITY   = .0494621
INCLINATION    = 63.0070
RA_OF_ASC_NODE = 283.0604
ARG_OF_PERICENTER = 291.5807
MEAN_ANOMALY   = 63.3232

EPHEMERIS_TYPE = 0
CLASSIFICATION_TYPE = U
NORAD_CAT_ID   = 82205
ELEMENT_SET_NO = 999
REV_AT_EPOCH   = 60615
BSTAR          = .12711E-2
MEAN_MOTION_DOT = .4492E-4
MEAN_MOTION_DDOT = 0

CCSDS_OMM_VERS = 2.0
CREATION_DATE  = 
ORIGINATOR     = 

OBJECT_NAME    = UNKNOWN
OBJECT_ID      = 
CENTER_NAME    = EARTH
REF_FRAME      = TEME
TIME_SYSTEM    = UTC
MEAN_ELEMENT_THEORY = SGP/SGP4

EPOCH          = 2025-11-24T15:03:17.695296
MEAN_MOTION    = 14.11709132
ECCENTRICITY   = .0070377
INCLINATION    = 99.3148
RA_OF_ASC_NODE = 213.8799
ARG_OF_PERICENTER = 35.4439
MEAN_ANOMALY   = 325.1378

EPHEMERIS_TYPE = 0
CLASSIFICATION_TYPE = U
NORAD_CAT_ID   = 82223
ELEMENT_SET_NO = 999
REV_AT_EPOCH   = 44623
BSTAR          = .14579E-2
MEAN_MOTION_DOT = .267E-4
MEAN_MOTION_DDOT = 0

CCSDS_OMM_VERS = 2.0
CREATION_DATE  = 
ORIGINATOR     = 

OBJECT_NAME    = UNKNOWN
OBJECT_ID      = 
CENTER_NAME    = EARTH
REF_FRAME      = TEME
TIME_SYSTEM    = UTC
MEAN_ELEMENT_THEORY = SGP/SGP4

EPOCH          = 2025-12-02T04:53:13.280352
MEAN_MOTION    = 14.13685271
ECCENTRICITY   = .0069696
INCLINATION    = 98.9074
RA_OF_ASC_NODE = 241.7011
ARG_OF_PERICENTER = 222.4711
MEAN_ANOMALY   = 293.9621

EPHEMERIS_TYPE = 0
CLASSIFICATION_TYPE = U
NORAD_CAT_ID   = 82250
ELEMENT_SET_NO = 999
REV_AT_EPOCH   = 61514
BSTAR          = .23608E-2
MEAN_MOTION_DOT = .4521E-4
MEAN_MOTION_DDOT = 0

CCSDS_OMM_VERS = 2.0
CREATION_DATE  = 
ORIGINATOR     = 

OBJECT_NAME    = UNKNOWN
OBJECT_ID      = 
CENTER_NAME    = EARTH
REF_FRAME      = TEME
TIME_SYSTEM    = UTC
MEAN_ELEMENT_THEORY = SGP/SGP4

EPOCH          = 2025-12-03T07:22:21.056160
MEAN_MOTION    = 12.33539492
ECCENTRICITY   = .07531
INCLINATION    = 67.5226
RA_OF_ASC_NODE = 217.8168
ARG_OF_PERICENTER = 112.5125
MEAN_ANOMALY   = 255.7342

EPHEMERIS_TYPE = 0
CLASSIFICATION_TYPE = U
NORAD_CAT_ID   = 82272
ELEMENT_SET_NO = 999
REV_AT_EPOCH   = 27077
BSTAR          = .2855E-2
MEAN_MOTION_DOT = .874E-5
MEAN_MOTION_DDOT = 0

